format  = 'OEF2.0'       ! file format
rectype = 'ML'           ! record type (1L/ML)
refsys  = ECLM J2000     ! default reference system
END_OF_HEADER
3200
! Equinoctial elements: a, e*sin(LP), e*cos(LP), tan(i/2)*sin(LN), tan(i/2)*cos(LN), mean long.
 EQU   1.2712698659799273E+00  -0.655180638019882  -0.602190209287575   -0.195892944435075   -0.016221519745398 174.1180036048085
 MJD     56495.373881357 TDT
 MAG  14.316  0.150
! Non-grav parameters: model used, actual number in use, dimension
 LSP   0  0    6
! RMS    2.52178E-10   2.60124E-08   1.31574E-08   3.71011E-08   1.28164E-08   2.15372E-06
! EIG   4.44018E-11   7.63915E-10   3.23980E-09   8.82031E-09   3.82286E-08   4.74684E-08
! WEA   0.00005   0.54611  -0.27373  -0.03079  -0.03255  -0.79046
 COV   6.359389830762637E-20  2.712805653608023E-19 -1.667090542693803E-20
 COV  -3.042588584924570E-18 -2.186917970037622E-18  1.429193527790990E-17
 COV   6.766464116242792E-16 -3.404626378534528E-16 -9.594273392570523E-18
 COV  -3.108729666374832E-17 -5.555840628633575E-14  1.731178766203787E-16
 COV   2.299236524556866E-18  8.123737929538278E-18  2.777024242052387E-14
 COV   1.376490871891512E-15  3.342471656404263E-16  7.423870208380537E-16
 COV   1.642593894011357E-16  2.791208018844331E-15  4.638514311137169E-12
 NOR   4.962061246982942E+20 -5.327627534248921E+19 -4.620641758415286E+19
 NOR  -4.403104891785128E+17  5.932813625773998E+18 -3.665195364636023E+17
 NOR   6.346795682510974E+18  5.746284328194877E+18  3.468183847255181E+16
 NOR  -5.786991653662542E+17  4.212406704192021E+16  5.451633742369393E+18
 NOR   2.152443598945962E+16 -4.631136601482166E+17  3.660617248736939E+16
 NOR   2.173744816091079E+15 -9.772426374762596E+15  2.934312109140240E+14
 NOR   9.021933278822037E+16 -4.229841887150640E+15  2.892328145737202E+14
